{
  "BD": {
    "Independent": "Yes",
    "OfficialName": "Islamic Republic of Afghanistan",
    "Capital": "Kabul",
    "Continent": "Asia",
    "Population2019": 32225560,
    "Area": "652 230",
    "GDP2018": "$521",
    "Currency": "Afghan afghani (؋, AFN)",
    "CallingCode": "+93"
  },
  "BR": {
    "Independent": "Yes",
    "OfficialName": "Federative Republic of Brazil",
    "Capital": "Brasília",
    "Continent": "South America",
    "Population2019": 211173432,
    "Area": "8 515 770",
    "GDP2018": "8 921",
    "Currency": "Brazilian real (R$, BRL)",
    "CallingCode": "+55"
  },
  "GR": {
    "Independent": "Yes",
    "OfficialName": "Hellenic Republic",
    "Capital": "Athens",
    "Continent": "Europe",
    "Population2019": 10724599,
    "Area": "131 957",
    "GDP2018": "20 324",
    "Currency": "Euro (€, EUR)",
    "CallingCode": "+30"
  },
  "JP": {
    "Independent": "Yes",
    "OfficialName": "Japan",
    "Capital": "Tokyo",
    "Continent": "Asia",
    "Population2019": 126010000,
    "Area": "377 975",
    "GDP2018": "39 290",
    "Currency": "Japanese yen (¥, JPY)",
    "CallingCode": "+81"
  },
  "GB": {
    "Independent": "No",
    "OfficialName": "England",
    "Capital": "London",
    "Continent": "Europe",
    "Population2019": 55977178,
    "Area": "130 279",
    "GDP2018": "42 330",
    "Currency": "British pound (£, GBP)",
    "CallingCode": "+44"
  },
  "GL": {
    "Independent": "No",
    "OfficialName": "Greenland",
    "Capital": "Nuuk",
    "Continent": "North America",
    "Population2019": 56081,
    "Area": "2 166 090",
    "GDP2018": "42 182",
    "Currency": "Danish krone (kr., DKK)",
    "CallingCode": "+299"
  },
  "HK": {
    "Independent": "No",
    "OfficialName": "Hong Kong Special Administrative Region of the People's Republic of China",
    "Capital": "City of Victoria",
    "Continent": "Asia",
    "Population2019": 7500700,
    "Area": "1 104",
    "GDP2018": "48 717 ",
    "Currency": "Hong Kong dollar ($, HKD)",
    "CallingCode": "+852"
  },
  "VE": {
    "Independent": "Yes",
    "OfficialName": "Bolivarian Republic of Venezuela",
    "Capital": "Caracas",
    "Continent": "South America",
    "Population2019": 32219521,
    "Area": "916 445",
    "GDP2018": "N/A",
    "Currency": "Venezuelan bolívar soberano (Bs.S., VES)",
    "CallingCode": "+58"
  },
  "PR": {
    "Independent": "No",
    "OfficialName": "Commonwealth of Puerto Rico",
    "Capital": "San Juan",
    "Continent": "North America",
    "Population2019": 3193694,
    "Area": "8 870",
    "GDP2018": "31 651",
    "Currency": "United States dollar ($, USD)",
    "CallingCode": "+1787, +1939"
  },
  "PT": {
    "Independent": "Yes",
    "OfficialName": "Portuguese Republic",
    "Capital": "Lisbon",
    "Continent": "Europe",
    "Population2019": 10276617,
    "Area": "92 090",
    "GDP2018": "23 408",
    "Currency": "Euro (€, EUR)",
    "CallingCode": "+351"
  },
  "PK": {
    "Independent": "Yes",
    "OfficialName": "Islamic Republic of Pakistan",
    "Capital": "Islamabad",
    "Continent": "Asia",
    "Population2019": 218741520,
    "Area": "907 132",
    "GDP2018": "1 482",
    "Currency": "Pakistani rupee (₨, PKR)",
    "CallingCode": "+92"
  },
  "PH": {
    "Independent": "Yes",
    "OfficialName": "Republic of the Philippines",
    "Capital": "Manila",
    "Continent": "Asia",
    "Population2019": 108323702,
    "Area": "300 000",
    "GDP2018": "3 103",
    "Currency": "Philippine peso (₱, PHP)",
    "CallingCode": "+63"
  },
  "PL": {
    "Independent": "Yes",
    "OfficialName": "Republic of Poland",
    "Capital": "Warsaw",
    "Continent": "Europe",
    "Population2019": 38386000,
    "Area": "312 696",
    "GDP2018": "15 421",
    "Currency": "Polish złoty (zł, PLN)",
    "CallingCode": "+48"
  },
  "ZM": {
    "Independent": "Yes",
    "OfficialName": "Republic of Zambia",
    "Capital": "Lusaka",
    "Continent": "Africa",
    "Population2019": 17381168,
    "Area": "752 612",
    "GDP2018": "1540",
    "Currency": "Zambian kwacha (ZK, ZMW)",
    "CallingCode": "+260"
  },
  "EE": {
    "Independent": "Yes",
    "OfficialName": "Republic of Estonia",
    "Capital": "Tallinn",
    "Continent": "Europe",
    "Population2019": 1328360,
    "Area": "45 227",
    "GDP2018": "23 266",
    "Currency": "Euro (€, EUR)",
    "CallingCode": "+372"
  },
  "IT": {
    "Independent": "Yes",
    "OfficialName": "Italian Republic",
    "Capital": "Rome",
    "Continent": "Europe",
    "Population2019": 60247214,
    "Area": "301 339",
    "GDP2018": "34 483",
    "Currency": "Euro (€, EUR)",
    "CallingCode": "+39"
  },
  "VN": {
    "Independent": "Yes",
    "OfficialName": "Socialist Republic of Vietnam",
    "Capital": "Hanoi",
    "Continent": "Asia",
    "Population2019": 96208984,
    "Area": "331 212",
    "GDP2018": "2 567",
    "Currency": "Vietnamese đồng (₫, VND)",
    "CallingCode": "+84"
  },
  "ET": {
    "Independent": "Yes",
    "OfficialName": "Federal Democratic Republic of Ethiopia",
    "Capital": "Addis Ababa",
    "Continent": "Africa",
    "Population2019": 98665000,
    "Area": "1 104 300",
    "GDP2018": "772",
    "Currency": "Ethiopian birr (Br, ETB)",
    "CallingCode": "+251"
  },
  "ZW": {
    "Independent": "Yes",
    "OfficialName": "Republic of Zimbabwe",
    "Capital": "Harare",
    "Continent": "Africa",
    "Population2019": 15159624,
    "Area": "390 757",
    "GDP2018": "2 147",
    "Currency": "United States dollar ($, USD)",
    "CallingCode": "+263"
  },
  "ES": {
    "Independent": "Yes",
    "OfficialName": "Kingdom of Spain",
    "Capital": "Madrid",
    "Continent": "Europe",
    "Population2019": 47100396,
    "Area": "505 992",
    "GDP2018": "30 371",
    "Currency": "Euro (€, EUR)",
    "CallingCode": "+34"
  },
  "MG": {
    "Independent": "Yes",
    "OfficialName": "Republic of Madagascar",
    "Capital": "Antananarivo",
    "Continent": "Africa",
    "Population2019": 25680342,
    "Area": "587 041",
    "GDP2018": "528",
    "Currency": "Malagasy ariary (Ar, MGA)",
    "CallingCode": "+261"
  },
  "UZ": {
    "Independent": "Yes",
    "OfficialName": "Republic of Uzbekistan",
    "Capital": "Tashkent",
    "Continent": "Asia",
    "Population2019": 34034952,
    "Area": "447 400",
    "GDP2018": "1 532",
    "Currency": "Uzbekistani soʻm (so'm, UZS)",
    "CallingCode": "+998"
  },
  "ML": {
    "Independent": "Yes",
    "OfficialName": "Republic of Mali",
    "Capital": "Bamako",
    "Continent": "Africa",
    "Population2019": 19973000,
    "Area": "1 240 190",
    "GDP2018": "900",
    "Currency": "West African CFA franc (Fr, XOF)",
    "CallingCode": "+223"
  },
  "MN": {
    "Independent": "Yes",
    "OfficialName": "Mongolia",
    "Capital": "Ulan Bator",
    "Continent": "Asia",
    "Population2019": 3304526,
    "Area": "1 564 110",
    "GDP2018": "4 122",
    "Currency": "Mongolian tögrög (₮, MNT)",
    "CallingCode": "+976"
  },
  "MW": {
    "Independent": "Yes",
    "OfficialName": "Republic of Malawi",
    "Capital": "Lilongwe",
    "Continent": "Africa",
    "Population2019": 17563749,
    "Area": "118 484",
    "GDP2018": "389",
    "Currency": "Malawian kwacha (MK, MWK)",
    "CallingCode": "+265"
  },
  "TZ": {
    "Independent": "Yes",
    "OfficialName": "United Republic of Tanzania",
    "Capital": "Dodoma",
    "Continent": "Africa",
    "Population2019": 55890747,
    "Area": "945 087",
    "GDP2018": "1 051",
    "Currency": "Tanzanian shilling (Sh, TZS)",
    "CallingCode": "+255"
  },
  "MY": {
    "Independent": "Yes",
    "OfficialName": "Malaysia",
    "Capital": "Kuala Lumpur",
    "Continent": "Asia",
    "Population2019": 32700760,
    "Area": "330 803",
    "GDP2018": "11 373",
    "Currency": "Malaysian ringgit (RM, MYR)",
    "CallingCode": "+60"
  },
  "MX": {
    "Independent": "Yes",
    "OfficialName": "United Mexican States",
    "Capital": "Mexico City",
    "Continent": "North America",
    "Population2019": 126577691,
    "Area": "1 964 380",
    "GDP2018": "9 673",
    "Currency": "Mexican peso ($, MXN)",
    "CallingCode": "+52"
  },
  "IL": {
    "Independent": "Yes",
    "OfficialName": "State of Israel",
    "Capital": "Jerusalem",
    "Continent": "Asia",
    "Population2019": 9164160,
    "Area": "20 770",
    "GDP2018": "41 464",
    "Currency": "Israeli new shekel (₪, ILS)",
    "CallingCode": "+972"
  },
  "FR": {
    "Independent": "Yes",
    "OfficialName": "French Republic",
    "Capital": "Paris",
    "Continent": "Europe",
    "Population2019": 67064000,
    "Area": "640 679",
    "GDP2018": "41 464",
    "Currency": "Euro (€, EUR)",
    "CallingCode": "+33"
  },
  "FJ": {
    "Independent": "Yes",
    "OfficialName": "Republic of Fiji",
    "Capital": "Suva",
    "Continent": "Oceania",
    "Population2019": 884887,
    "Area": "18 272",
    "GDP2018": "6 267",
    "Currency": "Fijian dollar ($, FJD)",
    "CallingCode": "+679"
  },
  "NI": {
    "Independent": "Yes",
    "OfficialName": "Republic of Nicaragua",
    "Capital": "Managua",
    "Continent": "North America",
    "Population2019": 6460411,
    "Area": "130 373",
    "GDP2018": "2 029",
    "Currency": "Nicaraguan córdoba (C$, NIO)",
    "CallingCode": "+505"
  },
  "NO": {
    "Independent": "Yes",
    "OfficialName": "Kingdom of Norway",
    "Capital": "Oslo",
    "Continent": "Europe",
    "Population2019": 5356789,
    "Area": "323 802",
    "GDP2018": "81 697",
    "Currency": "Norwegian krone (kr, NOK)",
    "CallingCode": "+47"
  },
  "NA": {
    "Independent": "Yes",
    "OfficialName": "Republic of Namibia",
    "Capital": "Windhoek",
    "Continent": "Africa",
    "Population2019": 2458936,
    "Area": "825 615",
    "GDP2018": "5 932",
    "Currency": "Namibian dollar ($, NAD)",
    "CallingCode": "+264"
  },
  "VU": {
    "Independent": "Yes",
    "OfficialName": "Republic of Vanuatu",
    "Capital": "Port Vila",
    "Continent": "Oceania",
    "Population2019": 304500,
    "Area": "12 189",
    "GDP2018": "3 124",
    "Currency": "Vanuatu vatu (Vt, VUV)",
    "CallingCode": "+678"
  },
  "NE": {
    "Independent": "Yes",
    "OfficialName": "Republic of Niger",
    "Capital": "Niamey",
    "Continent": "Africa",
    "Population2019": 22314743,
    "Area": "1 267 000",
    "GDP2018": "414",
    "Currency": "West African CFA franc (Fr, XOF)",
    "CallingCode": "+227"
  },
  "XK": {
    "Independent": "No",
    "OfficialName": "Republic of Kosovo",
    "Capital": "Pristina",
    "Continent": "Europe",
    "Population2019": 1795666,
    "Area": "10 887",
    "GDP2018": "4 302",
    "Currency": "Euro (€, EUR)",
    "CallingCode": "+383"
  },
  "CH": {
    "Independent": "Yes",
    "OfficialName": "Swiss Confederation",
    "Capital": "Bern",
    "Continent": "Europe",
    "Population2019": 8586550,
    "Area": "41 284",
    "GDP2018": "82 797",
    "Currency": "Swiss franc (Fr, CHF)",
    "CallingCode": "+41"
  },
  "CN": {
    "Independent": "Yes",
    "OfficialName": "People's Republic of China",
    "Capital": "Beijing",
    "Continent": "Asia",
    "Population2019": 1401492920,
    "Area": "9 596 960",
    "GDP2018": "9 771",
    "Currency": "Chinese yuan (¥, CNY)",
    "CallingCode": "+86"
  },
  "CA": {
    "Independent": "Yes",
    "OfficialName": "Canada",
    "Capital": "Ottawa",
    "Continent": "North America",
    "Population2019": 37935814,
    "Area": "9 984 670",
    "GDP2018": "46 233",
    "Currency": "Canadian dollar ($, CAD)",
    "CallingCode": "+1"
  },
  "SY": {
    "Independent": "Yes",
    "OfficialName": "Syrian Arab Republic",
    "Capital": "Damascus",
    "Continent": "Asia",
    "Population2019": 17070135,
    "Area": "185 180",
    "GDP2018": "2 033",
    "Currency": "Syrian pound (£, SYP)",
    "CallingCode": "+963"
  },
  "SX": {
    "Independent": "No",
    "OfficialName": "Sint Maarten",
    "Capital": "Philipsburg",
    "Continent": "North America",
    "Population2019": 40614,
    "Area": "34",
    "GDP2018": "N/A",
    "Currency": "Netherlands Antillean guilder (ƒ, ANG)",
    "CallingCode": "+1721"
  },
  "SR": {
    "Independent": "Yes",
    "OfficialName": "Republic of Suriname",
    "Capital": "Paramaribo",
    "Continent": "South America",
    "Population2019": 581372,
    "Area": "163 820",
    "GDP2018": "6 234",
    "Currency": "Surinamese dollar ($, SRD)",
    "CallingCode": "+597"
  },
  "KI": {
    "Independent": "Yes",
    "OfficialName": "Independent and Sovereign Republic of Kiribati",
    "Capital": "Tarawa",
    "Continent": "Oceania",
    "Population2019": 120100,
    "Area": "811",
    "GDP2018": "1 625",
    "Currency": "Australian dollar ($, AUD)",
    "CallingCode": "+686"
  },
  "SK": {
    "Independent": "Yes",
    "OfficialName": "Slovak Republic",
    "Capital": "Bratislava",
    "Continent": "Europe",
    "Population2019": 5456362,
    "Area": "49 037",
    "GDP2018": "19 443",
    "Currency": "Euro (€, EUR)",
    "CallingCode": "+421"
  },
  "KR": {
    "Independent": "Yes",
    "OfficialName": "Republic of Korea",
    "Capital": "Seoul",
    "Continent": "Asia",
    "Population2019": 51780579,
    "Area": "100 210",
    "GDP2018": "31 363",
    "Currency": "South Korean won (₩, KRW)",
    "CallingCode": "+82"
  },
  "KP": {
    "Independent": "Yes",
    "OfficialName": "Democratic People's Republic of Korea",
    "Capital": "Pyongyang",
    "Continent": "Asia",
    "Population2019": 25450000,
    "Area": "120 540",
    "GDP2018": "N/A",
    "Currency": "North Korean won (₩, KPW)",
    "CallingCode": "+850"
  },
  "SG": {
    "Independent": "Yes",
    "OfficialName": "Republic of Singapore",
    "Capital": "Singapore",
    "Continent": "Asia",
    "Population2019": 5703600,
    "Area": "716",
    "GDP2018": "64 582",
    "Currency": "Singapore dollar ($, SGD)",
    "CallingCode": "+65"
  },
  "SE": {
    "Independent": "Yes",
    "OfficialName": "Kingdom of Sweden",
    "Capital": "Stockholm",
    "Continent": "Europe",
    "Population2019": 10327589,
    "Area": "450 295",
    "GDP2018": "54 608 ",
    "Currency": "Swedish krona (kr, SEK)",
    "CallingCode": "+46"
  },
  "SD": {
    "Independent": "Yes",
    "OfficialName": "Republic of the Sudan",
    "Capital": "Khartoum",
    "Continent": "Africa",
    "Population2019": 42295645,
    "Area": "1 861 480",
    "GDP2018": "$ 977",
    "Currency": "Sudanese pound (, SDG)",
    "CallingCode": "+249"
  },
  "DO": {
    "Independent": "Yes",
    "OfficialName": "People's Democratic Republic of Algeria",
    "Capital": "Algiers",
    "Continent": "Africa",
    "Population2019": 43000000,
    "Area": "2 381 740",
    "GDP2018": "$ 4 115 ",
    "Currency": "Algerian dinar (دج, DZD)",
    "CallingCode": "+213"
  },
  "DK": {
    "Independent": "Yes",
    "OfficialName": "Kingdom of Denmark",
    "Capital": "Copenhagen",
    "Continent": "Europe",
    "Population2019": 5822763,
    "Area": "43 094",
    "GDP2018": "61 350",
    "Currency": "Danish krone (kr., DKK)",
    "CallingCode": "+45"
  },
  "VG": "Road Town",
  "DE": {
    "Independent": "Yes",
    "OfficialName": "Federal Republic of Germany",
    "Capital": "Berlin",
    "Continent": "Europe",
    "Population2019": 83149300,
    "Area": "357 114",
    "GDP2018": "47 603",
    "Currency": "Euro (€, EUR)",
    "CallingCode": "+49"
  },
  "YE": {
    "Independent": "Yes",
    "OfficialName": "Republic of Yemen",
    "Capital": "Sanaa",
    "Continent": "Asia",
    "Population2019": 29161922,
    "Area": "527 968",
    "GDP2018": "944",
    "Currency": "Yemeni rial (﷼, YER)",
    "CallingCode": "+967"
  },
  "DZ": {
    "Independent": "Yes",
    "OfficialName": "People's Democratic Republic of Algeria",
    "Capital": "Algiers",
    "Continent": "Africa",
    "Population2019": 43000000,
    "Area": "2 381 740",
    "GDP2018": "4 115",
    "Currency": "Algerian dinar (دج, DZD)",
    "CallingCode": "+213"
  },
  "US": {
    "Independent": "Yes",
    "OfficialName": "United States of America",
    "Capital": "Washington D.C.",
    "Continent": "North America",
    "Population2019": 329345637,
    "Area": "9 833 520",
    "GDP2018": "62 795",
    "Currency": "United States dollar ($, USD)",
    "CallingCode": "+1"
  },
  "UY": {
    "Independent": "Yes",
    "OfficialName": "Oriental Republic of Uruguay",
    "Capital": "Montevideo",
    "Continent": "South America",
    "Population2019": 3518552,
    "Area": "176 215",
    "GDP2018": "17 278",
    "Currency": "Uruguayan peso ($, UYU)",
    "CallingCode": "+598"
  },
  "TR": {
    "Independent": "Yes",
    "OfficialName": "Republic of Turkey",
    "Capital": "Ankara",
    "Continent": "Asia, Europe",
    "Population2019": 83154997,
    "Area": "783 562",
    "GDP2018": "9 370",
    "Currency": "Turkish lira (₺, TRY)",
    "CallingCode": "+90"
  },
  "TG": {
    "Independent": "Yes",
    "OfficialName": "Togolese Republic",
    "Capital": "Lomé",
    "Continent": "Africa",
    "Population2019": 7538000,
    "Area": "56 785",
    "GDP2018": "679",
    "Currency": "West African CFA franc (Fr, XOF)",
    "CallingCode": "+228"
  },
  "VA": {
    "Independent": "Yes",
    "OfficialName": "Vatican City State",
    "Capital": "Vatican City",
    "Continent": "Europe",
    "Population2019": 799,
    "Area": "0.44",
    "GDP2018": "N/A",
    "Currency": "Euro (€, EUR)",
    "CallingCode": "+3906698, +379"
  },
  "AF": {
    "Independent": "Yes",
    "OfficialName": "Islamic Republic of Afghanistan",
    "Capital": "Kabul",
    "Continent": "Asia",
    "Population2019": 32225560,
    "Area": "652 230",
    "GDP2018": "$521",
    "Currency": "Afghan afghani (؋, AFN)",
    "CallingCode": "+93"
  },
  "IR": {
    "Independent": "Yes",
    "OfficialName": "Islamic Republic of Iran",
    "Capital": "Tehran",
    "Continent": "Asia",
    "Population2019": 83230120,
    "Area": "1 648 200",
    "GDP2018": "N/A",
    "Currency": "Iranian rial (﷼, IRR)",
    "CallingCode": "+98"
  },
  "AL": {
    "Independent": "Yes",
    "OfficialName": "Republic of Albania",
    "Capital": "Tirana",
    "Continent": "Europe",
    "Population2019": 2862427,
    "Area": "28 748",
    "GDP2018": "5 269",
    "Currency": "Albanian lek (L, ALL)",
    "CallingCode": "+355"
  },
  "AU": {
    "Independent": "Yes",
    "OfficialName": "Commonwealth of Australia",
    "Capital": "Canberra",
    "Continent": "Oceania",
    "Population2019": 25627280,
    "Area": "7 692 020",
    "GDP2018": "57 374",
    "Currency": "Australian dollar ($, AUD)",
    "CallingCode": "+61"
  },
  "IN": {
    "Independent": "Yes",
    "OfficialName": "Republic of India",
    "Capital": "New Delhi",
    "Continent": "Asia",
    "Population2019": 1359072550,
    "Area": "3 287 260",
    "GDP2018": "2 010",
    "Currency": "Indian rupee (₹, INR)",
    "CallingCode": "+91"
  },
  "AX": {
    "Independent": "No",
    "OfficialName": "Åland Islands",
    "Capital": "Mariehamn",
    "Continent": "Europe",
    "Population2019": 29789,
    "Area": "1 580",
    "GDP2018": "N/A",
    "Currency": "Euro (€, EUR)",
    "CallingCode": "+35818"
  },
  "IE": {
    "Independent": "Yes",
    "OfficialName": "Republic of Ireland",
    "Capital": "Dublin",
    "Continent": "Europe",
    "Population2019": 4921500,
    "Area": "70 273",
    "GDP2018": "78 806",
    "Currency": "Euro (€, EUR)",
    "CallingCode": "+353"
  },
  "UA": {
    "Independent": "Yes",
    "OfficialName": "Ukraine",
    "Capital": "Kyiv",
    "Continent": "Europe",
    "Population2019": 41902416,
    "Area": "603 500",
    "GDP2018": "3 095",
    "Currency": "Ukrainian hryvnia (₴, UAH)",
    "CallingCode": "+380"
  },
  "QA": {
    "Independent": "Yes",
    "OfficialName": "State of Qatar",
    "Capital": "Doha",
    "Continent": "Asia",
    "Population2019": 2747282,
    "Area": "11 586",
    "GDP2018": "68 794",
    "Currency": "Qatari riyal (ر.ق, QAR)",
    "CallingCode": "+380"
  }
}
